start=new Date('2021-12-16T00:00:00.000Z').valueOf();
sats=[{"GP_ID":"191776587","EPOCH":"2021-12-15T22:00:01.999584","LAUNCH_DATE":"2021-12-02","COUNTRY_CODE":"US","FILE":"3241524","BSTAR":"-0.00082718000000","OBJECT_TYPE":"PAYLOAD","RCS_SIZE":"MEDIUM","REF_FRAME":"TEME","CENTER_NAME":"EARTH","INCLINATION":"53.2157","PERIOD":"93.477","NORAD_CAT_ID":"49740","MEAN_MOTION_DOT":"-0.00034301","OBJECT_NAME":"STARLINK-3226","EPHEMERIS_TYPE":"0","CLASSIFICATION_TYPE":"U","SEMIMAJOR_AXIS":"6822.796","SITE":"AFETR","ARG_OF_PERICENTER":"50.7194","MEAN_MOTION_DDOT":"0.0000000000000","ECCENTRICITY":"0.00016130","DECAY_DATE":null,"MEAN_ELEMENT_THEORY":"SGP4","APOAPSIS":"445.761","MEAN_MOTION":"15.40491164","MEAN_ANOMALY":"254.1337","TLE_LINE1":"1 49740U 21115S   21349.91668981 -.00034301  00000-0 -82718-3 0  9993","TIME_SYSTEM":"UTC","RA_OF_ASC_NODE":"256.1520","PERIAPSIS":"443.560","REV_AT_EPOCH":"326","OBJECT_ID":"2021-115S","ELEMENT_SET_NO":"999","TLE_LINE2":"2 49740  53.2157 256.1520 0001613  50.7194 254.1337 15.40491164  3268"},{"REV_AT_EPOCH":"245","OBJECT_ID":"2021-115T","ELEMENT_SET_NO":"999","TLE_LINE2":"2 49741  53.2160 256.1485 0001540  49.2594 257.6788 15.40480119  2455","APOAPSIS":"445.744","MEAN_MOTION":"15.40480119","TLE_LINE1":"1 49741U 21115T   21349.91668981 -.00032275  00000-0 -77782-3 0  9997","MEAN_ANOMALY":"257.6788","TIME_SYSTEM":"UTC","RA_OF_ASC_NODE":"256.1485","PERIAPSIS":"443.643","ARG_OF_PERICENTER":"49.2594","MEAN_MOTION_DDOT":"0.0000000000000","ECCENTRICITY":"0.00015400","DECAY_DATE":null,"MEAN_ELEMENT_THEORY":"SGP4","SITE":"AFETR","SEMIMAJOR_AXIS":"6822.828","INCLINATION":"53.2160","NORAD_CAT_ID":"49741","PERIOD":"93.477","MEAN_MOTION_DOT":"-0.00032275","OBJECT_NAME":"STARLINK-3244","EPHEMERIS_TYPE":"0","CLASSIFICATION_TYPE":"U","REF_FRAME":"TEME","CENTER_NAME":"EARTH","EPOCH":"2021-12-15T22:00:01.999584","LAUNCH_DATE":"2021-12-02","FILE":"3241542","COUNTRY_CODE":"US","BSTAR":"-0.00077782000000","OBJECT_TYPE":"PAYLOAD","RCS_SIZE":"MEDIUM","GP_ID":"191800631"},{"SITE":"AFETR","SEMIMAJOR_AXIS":"6822.793","ARG_OF_PERICENTER":"43.7944","MEAN_MOTION_DDOT":"0.0000000000000","MEAN_ELEMENT_THEORY":"SGP4","DECAY_DATE":null,"ECCENTRICITY":"0.00016720","APOAPSIS":"445.799","MEAN_ANOMALY":"258.9735","TLE_LINE1":"1 49742U 21115U   21349.91668981 -.00034679  00000-0 -83642-3 0  9990","MEAN_MOTION":"15.40492107","RA_OF_ASC_NODE":"256.1560","TIME_SYSTEM":"UTC","PERIAPSIS":"443.517","REV_AT_EPOCH":"245","OBJECT_ID":"2021-115U","ELEMENT_SET_NO":"999","TLE_LINE2":"2 49742  53.2156 256.1560 0001672  43.7944 258.9735 15.40492107  2455","GP_ID":"191800030","LAUNCH_DATE":"2021-12-02","EPOCH":"2021-12-15T22:00:01.999584","FILE":"3241542","BSTAR":"-0.00083642000000","COUNTRY_CODE":"US","RCS_SIZE":"MEDIUM","OBJECT_TYPE":"PAYLOAD","REF_FRAME":"TEME","CENTER_NAME":"EARTH","INCLINATION":"53.2156","OBJECT_NAME":"STARLINK-3202","MEAN_MOTION_DOT":"-0.00034679","PERIOD":"93.477","NORAD_CAT_ID":"49742","EPHEMERIS_TYPE":"0","CLASSIFICATION_TYPE":"U"},{"CENTER_NAME":"EARTH","REF_FRAME":"TEME","EPHEMERIS_TYPE":"0","CLASSIFICATION_TYPE":"U","INCLINATION":"53.2160","NORAD_CAT_ID":"49743","PERIOD":"93.476","MEAN_MOTION_DOT":"-0.00044183","OBJECT_NAME":"STARLINK-3239","GP_ID":"191800230","OBJECT_TYPE":"PAYLOAD","RCS_SIZE":"MEDIUM","EPOCH":"2021-12-15T22:00:01.999584","LAUNCH_DATE":"2021-12-02","BSTAR":"-0.00106940000000","FILE":"3241542","COUNTRY_CODE":"US","RA_OF_ASC_NODE":"256.1501","TIME_SYSTEM":"UTC","PERIAPSIS":"443.497","APOAPSIS":"445.776","MEAN_MOTION":"15.40499434","TLE_LINE1":"1 49743U 21115V   21349.91668981 -.00044183  00000-0 -10694-2 0  9998","MEAN_ANOMALY":"258.0066","OBJECT_ID":"2021-115V","TLE_LINE2":"2 49743  53.2160 256.1501 0001670  47.9049 258.0066 15.40499434  2454","ELEMENT_SET_NO":"999","REV_AT_EPOCH":"245","SEMIMAJOR_AXIS":"6822.771","SITE":"AFETR","MEAN_MOTION_DDOT":"0.0000000000000","DECAY_DATE":null,"ECCENTRICITY":"0.00016700","MEAN_ELEMENT_THEORY":"SGP4","ARG_OF_PERICENTER":"47.9049"},{"SEMIMAJOR_AXIS":"6822.787","SITE":"AFETR","ARG_OF_PERICENTER":"48.1139","ECCENTRICITY":"0.00019130","DECAY_DATE":null,"MEAN_ELEMENT_THEORY":"SGP4","MEAN_MOTION_DDOT":"0.0000000000000","MEAN_MOTION":"15.40494167","MEAN_ANOMALY":"252.5422","TLE_LINE1":"1 49744U 21115W   21349.91668981 -.00034298  00000-0 -82700-3 0  9993","APOAPSIS":"445.957","PERIAPSIS":"443.347","RA_OF_ASC_NODE":"256.1599","TIME_SYSTEM":"UTC","REV_AT_EPOCH":"245","TLE_LINE2":"2 49744  53.2156 256.1599 0001913  48.1139 252.5422 15.40494167  2453","ELEMENT_SET_NO":"999","OBJECT_ID":"2021-115W","GP_ID":"191800431","FILE":"3241542","COUNTRY_CODE":"US","BSTAR":"-0.00082700000000","EPOCH":"2021-12-15T22:00:01.999584","LAUNCH_DATE":"2021-12-02","OBJECT_TYPE":"PAYLOAD","RCS_SIZE":"MEDIUM","REF_FRAME":"TEME","CENTER_NAME":"EARTH","MEAN_MOTION_DOT":"-0.00034298","PERIOD":"93.476","NORAD_CAT_ID":"49744","OBJECT_NAME":"STARLINK-3231","INCLINATION":"53.2156","CLASSIFICATION_TYPE":"U","EPHEMERIS_TYPE":"0"},{"EPOCH":"2021-12-15T22:00:01.999584","LAUNCH_DATE":"2021-12-02","FILE":"3241475","COUNTRY_CODE":"US","BSTAR":"-0.00132680000000","OBJECT_TYPE":"PAYLOAD","RCS_SIZE":"MEDIUM","GP_ID":"191775595","INCLINATION":"53.2159","PERIOD":"93.477","MEAN_MOTION_DOT":"-0.00054636","NORAD_CAT_ID":"49745","OBJECT_NAME":"STARLINK-3241","EPHEMERIS_TYPE":"0","CLASSIFICATION_TYPE":"U","REF_FRAME":"TEME","CENTER_NAME":"EARTH","ARG_OF_PERICENTER":"45.3736","MEAN_MOTION_DDOT":"0.0000000000000","DECAY_DATE":null,"ECCENTRICITY":"0.00016860","MEAN_ELEMENT_THEORY":"SGP4","SITE":"AFETR","SEMIMAJOR_AXIS":"6822.789","REV_AT_EPOCH":"326","OBJECT_ID":"2021-115X","TLE_LINE2":"2 49745  53.2159 256.1544 0001686  45.3736 258.4277 15.40493452  3265","ELEMENT_SET_NO":"999","APOAPSIS":"445.804","MEAN_MOTION":"15.40493452","TLE_LINE1":"1 49745U 21115X   21349.91668981 -.00054636  00000-0 -13268-2 0  9994","MEAN_ANOMALY":"258.4277","TIME_SYSTEM":"UTC","RA_OF_ASC_NODE":"256.1544","PERIAPSIS":"443.504"},{"REV_AT_EPOCH":"326","OBJECT_ID":"2021-115Y","ELEMENT_SET_NO":"999","TLE_LINE2":"2 49746  53.2155 256.1642 0001548  50.3599 248.1929 15.40495044  3260","APOAPSIS":"445.705","TLE_LINE1":"1 49746U 21115Y   21349.91668981 -.00052177  00000-0 -12662-2 0  9990","MEAN_ANOMALY":"248.1929","MEAN_MOTION":"15.40495044","TIME_SYSTEM":"UTC","RA_OF_ASC_NODE":"256.1642","PERIAPSIS":"443.593","ARG_OF_PERICENTER":"50.3599","MEAN_MOTION_DDOT":"0.0000000000000","MEAN_ELEMENT_THEORY":"SGP4","ECCENTRICITY":"0.00015480","DECAY_DATE":null,"SEMIMAJOR_AXIS":"6822.784","SITE":"AFETR","INCLINATION":"53.2155","OBJECT_NAME":"STARLINK-3233","PERIOD":"93.476","MEAN_MOTION_DOT":"-0.00052177","NORAD_CAT_ID":"49746","EPHEMERIS_TYPE":"0","CLASSIFICATION_TYPE":"U","REF_FRAME":"TEME","CENTER_NAME":"EARTH","LAUNCH_DATE":"2021-12-02","EPOCH":"2021-12-15T22:00:01.999584","FILE":"3241475","COUNTRY_CODE":"US","BSTAR":"-0.00126620000000","RCS_SIZE":"MEDIUM","OBJECT_TYPE":"PAYLOAD","GP_ID":"191775139"},{"ARG_OF_PERICENTER":"45.0476","DECAY_DATE":null,"ECCENTRICITY":"0.00018230","MEAN_ELEMENT_THEORY":"SGP4","MEAN_MOTION_DDOT":"0.0000000000000","SITE":"AFETR","SEMIMAJOR_AXIS":"6822.770","REV_AT_EPOCH":"245","TLE_LINE2":"2 49747  53.2159 256.1585 0001823  45.0476 256.6717 15.40499948  2458","ELEMENT_SET_NO":"999","OBJECT_ID":"2021-115Z","MEAN_MOTION":"15.40499948","MEAN_ANOMALY":"256.6717","TLE_LINE1":"1 49747U 21115Z   21349.91668981 -.00049851  00000-0 -12087-2 0  9997","APOAPSIS":"445.879","PERIAPSIS":"443.391","TIME_SYSTEM":"UTC","RA_OF_ASC_NODE":"256.1585","FILE":"3241542","BSTAR":"-0.00120870000000","COUNTRY_CODE":"US","EPOCH":"2021-12-15T22:00:01.999584","LAUNCH_DATE":"2021-12-02","OBJECT_TYPE":"PAYLOAD","RCS_SIZE":"MEDIUM","GP_ID":"191799831","NORAD_CAT_ID":"49747","PERIOD":"93.476","MEAN_MOTION_DOT":"-0.00049851","OBJECT_NAME":"STARLINK-3247","INCLINATION":"53.2159","CLASSIFICATION_TYPE":"U","EPHEMERIS_TYPE":"0","REF_FRAME":"TEME","CENTER_NAME":"EARTH"},{"RCS_SIZE":"LARGE","OBJECT_TYPE":"PAYLOAD","LAUNCH_DATE":"2021-12-02","EPOCH":"2021-12-15T22:00:01.999584","FILE":"3241542","COUNTRY_CODE":"US","BSTAR":"-0.00145980000000","GP_ID":"191800831","EPHEMERIS_TYPE":"0","CLASSIFICATION_TYPE":"U","INCLINATION":"53.2154","OBJECT_NAME":"STARLINK-3248","MEAN_MOTION_DOT":"-0.00060023","PERIOD":"93.477","NORAD_CAT_ID":"49748","CENTER_NAME":"EARTH","REF_FRAME":"TEME","MEAN_MOTION_DDOT":"0.0000000000000","MEAN_ELEMENT_THEORY":"SGP4","ECCENTRICITY":"0.00014520","DECAY_DATE":null,"ARG_OF_PERICENTER":"55.6607","SEMIMAJOR_AXIS":"6822.797","SITE":"AFETR","OBJECT_ID":"2021-115AA","TLE_LINE2":"2 49748  53.2154 256.1682 0001452  55.6607 240.7971 15.40490630  2458","ELEMENT_SET_NO":"999","REV_AT_EPOCH":"245","TIME_SYSTEM":"UTC","RA_OF_ASC_NODE":"256.1682","PERIAPSIS":"443.672","APOAPSIS":"445.653","TLE_LINE1":"1 49748U 21115AA  21349.91668981 -.00060023  00000-0 -14598-2 0  9991","MEAN_ANOMALY":"240.7971","MEAN_MOTION":"15.40490630"},{"RA_OF_ASC_NODE":"256.1625","TIME_SYSTEM":"UTC","PERIAPSIS":"443.600","APOAPSIS":"445.650","MEAN_ANOMALY":"248.7276","TLE_LINE1":"1 49749U 21115AB  21349.91668981 -.00062772  00000-0 -15270-2 0  9993","MEAN_MOTION":"15.40503199","OBJECT_ID":"2021-115AB","TLE_LINE2":"2 49749  53.2158 256.1625 0001502  50.8716 248.7276 15.40503199  3265","ELEMENT_SET_NO":"999","REV_AT_EPOCH":"326","SITE":"AFETR","SEMIMAJOR_AXIS":"6822.760","MEAN_MOTION_DDOT":"0.0000000000000","MEAN_ELEMENT_THEORY":"SGP4","DECAY_DATE":null,"ECCENTRICITY":"0.00015020","ARG_OF_PERICENTER":"50.8716","CENTER_NAME":"EARTH","REF_FRAME":"TEME","EPHEMERIS_TYPE":"0","CLASSIFICATION_TYPE":"U","INCLINATION":"53.2158","OBJECT_NAME":"STARLINK-3250","PERIOD":"93.476","NORAD_CAT_ID":"49749","MEAN_MOTION_DOT":"-0.00062772","GP_ID":"191775601","RCS_SIZE":"MEDIUM","OBJECT_TYPE":"PAYLOAD","LAUNCH_DATE":"2021-12-02","EPOCH":"2021-12-15T22:00:01.999584","BSTAR":"-0.00152700000000","FILE":"3241475","COUNTRY_CODE":"US"}];
